[{"OBJECT_NAME":"STARLINK-35481","OBJECT_ID":"2025-245P","EPOCH":"2026-03-09T20:52:44.180256","MEAN_MOTION":15.30198303,"ECCENTRICITY":0.0001015,"INCLINATION":53.1569,"RA_OF_ASC_NODE":283.0916,"ARG_OF_PERICENTER":73.3526,"MEAN_ANOMALY":286.7587,"EPHEMERIS_TYPE":0,"CLASSIFICATION_TYPE":"U","NORAD_CAT_ID":66247,"ELEMENT_SET_NO":999,"REV_AT_EPOCH":2128,"BSTAR":0.00059083511,"MEAN_MOTION_DOT":0.00017179,"MEAN_MOTION_DDOT":0},{"OBJECT_NAME":"CZ-6A DEB","OBJECT_ID":"2022-151QB","EPOCH":"2026-03-08T18:03:47.471328","MEAN_MOTION":15.32168285,"ECCENTRICITY":0.00205863,"INCLINATION":98.6246,"RA_OF_ASC_NODE":151.4486,"ARG_OF_PERICENTER":181.9757,"MEAN_ANOMALY":178.1404,"EPHEMERIS_TYPE":0,"CLASSIFICATION_TYPE":"U","NORAD_CAT_ID":54890,"ELEMENT_SET_NO":999,"REV_AT_EPOCH":17659,"BSTAR":0.012866954,"MEAN_MOTION_DOT":0.00424465,"MEAN_MOTION_DDOT":0}]
